{
    "satellites": [
        {
            "name": "starlink318",
            "title": "Starlink-318 (G6-81) (new)",
            "tle": [
                "1 70705C 25253C   25310.13937500  .00996100  00000+0  15292-2 0  3107",
                "2 70705  43.0037 205.2022 0006942 236.4728 319.7472 16.02294288    10"
            ],
            "stdMag": 5,
            "noradId": "70705",
            "tleUrl": "http://celestrak.org/NORAD/elements/supplemental/sup-gp.php?FILE=starlink&FORMAT=tle",
            "launchDate": "2025-11-06T01:31:10.000Z",
            "active": true,
            "batch": [
                {
                    "noradId": "70705",
                    "tle": [
                        "1 70705C 25253C   25310.13937500  .00996100  00000+0  15292-2 0  3107",
                        "2 70705  43.0037 205.2022 0006942 236.4728 319.7472 16.02294288    10"
                    ]
                },
                {
                    "noradId": "70704",
                    "tle": [
                        "1 70704C 25253B   25310.13937500  .00770700  00000+0  12012-2 0  3109",
                        "2 70704  43.0037 205.2022 0006729 236.3339 319.8837 16.02263659    13"
                    ]
                }
            ]
        }
    ],
    "config": {}
}